IRIDIUM 126             
1 42809U 17039G   24171.60252732  .00000342  00000+0  11519-3 0  9993
2 42809  86.3959 297.6900 0001939  94.2160 265.9258 14.34221151365669
IRIDIUM 124             
1 42810U 17039H   24171.56395668  .00000437  00000+0  12389-3 0  9997
2 42810  86.4505 234.4330 0002607  97.3685 262.7812 14.43268198370168
IRIDIUM 128             
1 42811U 17039J   24171.52350371  .00000129  00000+0  38844-4 0  9999
2 42811  86.3965 329.2532 0002192  99.9244 260.2199 14.34216466365686
IRIDIUM 121             
1 42812U 17039K   24171.62155993  .00000193  00000+0  61760-4 0  9998
2 42812  86.3961 297.7047 0002248  95.9779 264.1673 14.34219275365540
IRIDIUM 133             
1 42955U 17061A   24171.48544799  .00000081  00000+0  21776-4 0  9990
2 42955  86.3967 329.3691 0002019  92.3774 267.7653 14.34217602350478
IRIDIUM 100             
1 42956U 17061B   24171.40933418  .00000325  00000+0  10897-3 0  9995
2 42956  86.3967 329.3366 0002013  90.9282 269.2144 14.34214466350466
IRIDIUM 122             
1 42957U 17061C   24171.51716091  .00000122  00000+0  36565-4 0  9990
2 42957  86.3966 329.2898 0002065  93.8891 266.2541 14.34217600350483
IRIDIUM 129             
1 42958U 17061D   24171.54253076  .00000025  00000+0  20329-5 0  9997
2 42958  86.3966 329.3385 0001950  94.4154 265.7265 14.34217746350508
